{
  "40258": [
    {
      "epoch": "2025-11-18T03:56:51.744202+00:00",
      "mean_motion": 0.99117041,
      "eccentricity": 0.0003809,
      "inclination": 1.3453,
      "raan": 85.1861,
      "arg_perigee": 143.2709,
      "mean_anomaly": 169.7347,
      "bstar": 0.0,
      "tle_line1": "1 40258U 14058A   25322.16448778 -.00000071  00000-0  00000+0 0  9994",
      "tle_line2": "2 40258   1.3453  85.1861 0003809 143.2709 169.7347  0.99117041 38877",
      "norad_id": 40258,
      "object_name": "LUCH (OLYMP)"
    },
    {
      "epoch": "2025-11-18T10:23:24.026215+00:00",
      "mean_motion": 0.9911696899999999,
      "eccentricity": 0.0003797,
      "inclination": 1.3459,
      "raan": 85.184,
      "arg_perigee": 143.2664,
      "mean_anomaly": 265.5245,
      "bstar": 0.0,
      "tle_line1": "1 40258U 14058A   25322.43291697 -.00000065  00000-0  00000+0 0  9993",
      "tle_line2": "2 40258   1.3459  85.1840 0003797 143.2664 265.5245  0.99116969 38887",
      "norad_id": 40258,
      "object_name": "LUCH (OLYMP)"
    },
    {
      "epoch": "2025-11-18T17:06:52.990845+00:00",
      "mean_motion": 0.9911690899999999,
      "eccentricity": 0.0003789,
      "inclination": 1.3466,
      "raan": 85.1809,
      "arg_perigee": 143.4584,
      "mean_anomaly": 5.3176,
      "bstar": 0.0,
      "tle_line1": "1 40258U 14058A   25322.71311332 -.00000058  00000-0  00000+0 0  9995",
      "tle_line2": "2 40258   1.3466  85.1809 0003789 143.4584   5.3176  0.99116909 38881",
      "norad_id": 40258,
      "object_name": "LUCH (OLYMP)"
    },
    {
      "epoch": "2025-11-18T19:55:26.281036+00:00",
      "mean_motion": 0.99116879,
      "eccentricity": 0.0003786,
      "inclination": 1.3469,
      "raan": 85.1798,
      "arg_perigee": 143.5558,
      "mean_anomaly": 46.9887,
      "bstar": 0.0,
      "tle_line1": "1 40258U 14058A   25322.83016529 -.00000055  00000-0  00000+0 0  9995",
      "tle_line2": "2 40258   1.3469  85.1798 0003786 143.5558  46.9887  0.99116879 38886",
      "norad_id": 40258,
      "object_name": "LUCH (OLYMP)"
    },
    {
      "epoch": "2025-11-19T19:56:36.927734+00:00",
      "mean_motion": 0.9911665599999999,
      "eccentricity": 0.0003759,
      "inclination": 1.3493,
      "raan": 85.1704,
      "arg_perigee": 143.8923,
      "mean_anomaly": 43.7808,
      "bstar": 0.0,
      "tle_line1": "1 40258U 14058A   25323.83098296 -.00000032  00000-0  00000+0 0  9992",
      "tle_line2": "2 40258   1.3493  85.1704 0003759 143.8923  43.7808  0.99116656 38891",
      "norad_id": 40258,
      "object_name": "LUCH (OLYMP)"
    },
    {
      "epoch": "2025-11-20T16:17:53.973877+00:00",
      "mean_motion": 0.9911648,
      "eccentricity": 0.0003743,
      "inclination": 1.3514,
      "raan": 85.1624,
      "arg_perigee": 144.1418,
      "mean_anomaly": 346.169,
      "bstar": 0.0,
      "tle_line1": "1 40258U 14058A   25324.67909692 -.00000013  00000-0  00000+0 0  9995",
      "tle_line2": "2 40258   1.3514  85.1624 0003743 144.1418 346.1690  0.99116480 38908",
      "norad_id": 40258,
      "object_name": "LUCH (OLYMP)"
    },
    {
      "epoch": "2025-11-21T03:57:38.758759+00:00",
      "mean_motion": 0.99116378,
      "eccentricity": 0.0003737,
      "inclination": 1.3526,
      "raan": 85.1576,
      "arg_perigee": 144.5106,
      "mean_anomaly": 159.1993,
      "bstar": 0.0,
      "tle_line1": "1 40258U 14058A   25325.16503193 -.00000003  00000-0  00000+0 0  9995",
      "tle_line2": "2 40258   1.3526  85.1576 0003737 144.5106 159.1993  0.99116378 38902",
      "norad_id": 40258,
      "object_name": "LUCH (OLYMP)"
    },
    {
      "epoch": "2025-11-21T13:39:47.622803+00:00",
      "mean_motion": 0.99116301,
      "eccentricity": 0.0003734,
      "inclination": 1.3535,
      "raan": 85.1539,
      "arg_perigee": 144.5498,
      "mean_anomaly": 303.4176,
      "bstar": 0.0,
      "tle_line1": "1 40258U 14058A   25325.56930119  .00000005  00000-0  00000+0 0  9992",
      "tle_line2": "2 40258   1.3535  85.1539 0003734 144.5498 303.4176  0.99116301 38916",
      "norad_id": 40258,
      "object_name": "LUCH (OLYMP)"
    },
    {
      "epoch": "2025-11-22T03:18:56.198029+00:00",
      "mean_motion": 0.99116195,
      "eccentricity": 0.0003729,
      "inclination": 1.3549,
      "raan": 85.1476,
      "arg_perigee": 145.0677,
      "mean_anomaly": 145.8858,
      "bstar": 0.0,
      "tle_line1": "1 40258U 14058A   25326.13815044  .00000016  00000-0  00000+0 0  9997",
      "tle_line2": "2 40258   1.3549  85.1476 0003729 145.0677 145.8858  0.99116195 38916",
      "norad_id": 40258,
      "object_name": "LUCH (OLYMP)"
    },
    {
      "epoch": "2025-11-22T10:27:56.784088+00:00",
      "mean_motion": 0.99116151,
      "eccentricity": 0.0003731,
      "inclination": 1.3557,
      "raan": 85.1445,
      "arg_perigee": 145.1079,
      "mean_anomaly": 252.15530000000004,
      "bstar": 0.0,
      "tle_line1": "1 40258U 14058A   25326.43607389  .00000021  00000-0  00000+0 0  9997",
      "tle_line2": "2 40258   1.3557  85.1445 0003731 145.1079 252.1553  0.99116151 38928",
      "norad_id": 40258,
      "object_name": "LUCH (OLYMP)"
    },
    {
      "epoch": "2025-11-22T13:36:52.491760+00:00",
      "mean_motion": 0.99116127,
      "eccentricity": 0.0003732,
      "inclination": 1.356,
      "raan": 85.1433,
      "arg_perigee": 145.1501,
      "mean_anomaly": 298.9298,
      "bstar": 0.0,
      "tle_line1": "1 40258U 14058A   25326.56727421  .00000024  00000-0  00000+0 0  9994",
      "tle_line2": "2 40258   1.3560  85.1433 0003732 145.1501 298.9298  0.99116127 38927",
      "norad_id": 40258,
      "object_name": "LUCH (OLYMP)"
    },
    {
      "epoch": "2025-11-23T01:35:32.453369+00:00",
      "mean_motion": 0.99116048,
      "eccentricity": 0.000373,
      "inclination": 1.3572,
      "raan": 85.1378,
      "arg_perigee": 145.6521,
      "mean_anomaly": 116.51510000000002,
      "bstar": 0.0,
      "tle_line1": "1 40258U 14058A   25327.06634784  .00000033  00000-0  00000+0 0  9999",
      "tle_line2": "2 40258   1.3572  85.1378 0003730 145.6521 116.5151  0.99116048 38928",
      "norad_id": 40258,
      "object_name": "LUCH (OLYMP)"
    },
    {
      "epoch": "2025-11-23T08:17:38.753082+00:00",
      "mean_motion": 0.9911601500000001,
      "eccentricity": 0.0003733,
      "inclination": 1.3579,
      "raan": 85.1341,
      "arg_perigee": 145.7974,
      "mean_anomaly": 216.0132,
      "bstar": 0.0,
      "tle_line1": "1 40258U 14058A   25327.34558742  .00000037  00000-0  00000+0 0  9993",
      "tle_line2": "2 40258   1.3579  85.1341 0003733 145.7974 216.0132  0.99116015 38931",
      "norad_id": 40258,
      "object_name": "LUCH (OLYMP)"
    },
    {
      "epoch": "2025-11-23T13:33:59.296021+00:00",
      "mean_motion": 0.99115982,
      "eccentricity": 0.0003739,
      "inclination": 1.3584,
      "raan": 85.1324,
      "arg_perigee": 145.8568,
      "mean_anomaly": 294.3436,
      "bstar": 0.0,
      "tle_line1": "1 40258U 14058A   25327.56526963  .00000041  00000-0  00000+0 0  9992",
      "tle_line2": "2 40258   1.3584  85.1324 0003739 145.8568 294.3436  0.99115982 38932",
      "norad_id": 40258,
      "object_name": "LUCH (OLYMP)"
    },
    {
      "epoch": "2025-11-23T22:07:17.243042+00:00",
      "mean_motion": 0.9911593799999999,
      "eccentricity": 0.0003742,
      "inclination": 1.3593,
      "raan": 85.12840000000001,
      "arg_perigee": 146.2043,
      "mean_anomaly": 61.1927,
      "bstar": 0.0,
      "tle_line1": "1 40258U 14058A   25327.92172735  .00000047  00000-0  00000+0 0  9992",
      "tle_line2": "2 40258   1.3593  85.1284 0003742 146.2043  61.1927  0.99115938 38930",
      "norad_id": 40258,
      "object_name": "LUCH (OLYMP)"
    },
    {
      "epoch": "2025-11-24T10:05:43.941406+00:00",
      "mean_motion": 0.9911589,
      "eccentricity": 0.0003749,
      "inclination": 1.3605,
      "raan": 85.1231,
      "arg_perigee": 146.6042,
      "mean_anomaly": 238.8252,
      "bstar": 0.0,
      "tle_line1": "1 40258U 14058A   25328.42064747  .00000055  00000-0  00000+0 0  9990",
      "tle_line2": "2 40258   1.3605  85.1231 0003749 146.6042 238.8252  0.99115890 38948",
      "norad_id": 40258,
      "object_name": "LUCH (OLYMP)"
    },
    {
      "epoch": "2025-11-24T15:13:17.529022+00:00",
      "mean_motion": 0.9911586199999999,
      "eccentricity": 0.0003759,
      "inclination": 1.3611,
      "raan": 85.1208,
      "arg_perigee": 146.7162,
      "mean_anomaly": 314.9271,
      "bstar": 0.0,
      "tle_line1": "1 40258U 14058A   25328.63423066  .00000058  00000-0  00000+0 0  9999",
      "tle_line2": "2 40258   1.3611  85.1208 0003759 146.7162 314.9271  0.99115862 38940",
      "norad_id": 40258,
      "object_name": "LUCH (OLYMP)"
    },
    {
      "epoch": "2025-11-25T03:15:38.672089+00:00",
      "mean_motion": 0.99115815,
      "eccentricity": 0.0003766,
      "inclination": 1.3623,
      "raan": 85.1158,
      "arg_perigee": 147.2711,
      "mean_anomaly": 133.3721,
      "bstar": 0.0,
      "tle_line1": "1 40258U 14058A   25329.13586426  .00000065  00000-0  00000+0 0  9993",
      "tle_line2": "2 40258   1.3623  85.1158 0003766 147.2711 133.3721  0.99115815 38942",
      "norad_id": 40258,
      "object_name": "LUCH (OLYMP)"
    },
    {
      "epoch": "2025-11-25T10:02:52.967010+00:00",
      "mean_motion": 0.9911580500000001,
      "eccentricity": 0.0003773,
      "inclination": 1.3631,
      "raan": 85.1128,
      "arg_perigee": 147.5025,
      "mean_anomaly": 234.0553,
      "bstar": 0.0,
      "tle_line1": "1 40258U 14058A   25329.41866860  .00000069  00000-0  00000+0 0  9991",
      "tle_line2": "2 40258   1.3631  85.1128 0003773 147.5025 234.0553  0.99115805 38959",
      "norad_id": 40258,
      "object_name": "LUCH (OLYMP)"
    }
  ],
  "44878": []
}